{
    "mercury": {
        "semimajor_axis": 0.38709927,
        "eccentricity": 0.20563593,
        "inclination": 7.00497902,
        "mean_anomaly": 252.25032350,
        "argument_of_perihelion": 77.45779628,
        "ascending_node": 48.33076593
    },
    "venus": {
        "semimajor_axis": 0.72333566,
        "eccentricity": 0.00677672,
        "inclination": 3.39467605,
        "mean_anomaly": 181.97909950,
        "argument_of_perihelion": 131.60246718,
        "ascending_node": 76.67984255
    },
    "mars": {
        "semimajor_axis": 1.52371034,
        "eccentricity": 0.09339410,
        "inclination": 1.84969142,
        "mean_anomaly": -4.55343205,
        "argument_of_perihelion": -23.94362959,
        "ascending_node": 49.55953891
    },
    "jupiter": {
        "semimajor_axis": 5.20288700,
        "eccentricity": 0.04838624,
        "inclination": 1.30439695,
        "mean_anomaly": 34.39644051,
        "argument_of_perihelion": 14.72847983,
        "ascending_node": 100.47390909
    },
    "saturn": {
        "semimajor_axis": 9.53667594,
        "eccentricity": 0.05386179,
        "inclination": 2.48599187,
        "mean_anomaly": 49.95424423,
        "argument_of_perihelion": 92.59887831,
        "ascending_node": 113.66242448
    },
    "uranus": {
        "semimajor_axis": 19.18916464,
        "eccentricity": 0.04725744,
        "inclination": 0.77263783,
        "mean_anomaly": 313.23810451,
        "argument_of_perihelion": 170.95427630,
        "ascending_node": 74.01692503
    },
    "neptune": {
        "semimajor_axis": 30.06992276,
        "eccentricity": 0.00859048,
        "inclination": 1.77004347,
        "mean_anomaly": -55.12002969,
        "argument_of_perihelion": 44.96476227,
        "ascending_node": 131.78422574
    }
}
